STARLINK-11511 [DTC]    
1 62468U 24254G   26160.32957988  .00304574  00000+0  22747-2 0  9995
2 62468  43.0001  30.6202 0002126 306.9688  53.0985 15.71011971 83813
STARLINK-11505 [DTC]    
1 62469U 24254H   26160.50970618  .00146419  00000+0  11175-2 0  9996
2 62469  43.0002  29.3845 0002487 251.5573 108.5024 15.70988752 83832
STARLINK-11497 [DTC]    
1 62470U 24254J   26160.33487011  .00144543  00000+0  11041-2 0  9997
2 62470  43.0001  30.6649 0005757 265.6030  94.4180 15.70960238 83810
STARLINK-11477 [DTC]    
1 62471U 24254K   26159.86856715  .00131336  00000+0  10096-2 0  9990
2 62471  42.9989  33.1719 0001977 270.1719  89.8922 15.70871795 83737
STARLINK-11500 [DTC]    
1 62472U 24254L   26159.92683925  .00160138  00000+0  12271-2 0  9998
2 62472  43.0001  32.7439 0002185 242.6804 117.3842 15.70848749 83225
STARLINK-11464 [DTC]    
1 62473U 24254M   26160.53094474  .00161518  00000+0  12251-2 0  9994
2 62473  43.0001  29.5510 0003672 286.7513  73.2951 15.71083610 83891
STARLINK-11502 [DTC]    
1 62474U 24254N   26159.68843252  .00109152  00000+0  84014-3 0  9998
2 62474  43.0003  34.4073 0002277 295.3630  64.7002 15.70920075 83716
STARLINK-32657          
1 62475U 24254P   26158.91475542  .00007847  00000+0  29438-3 0  9994
2 62475  42.9991 230.1237 0001537 238.6738 121.3963 15.27577761 81261
STARLINK-32734          
1 62476U 24254Q   26160.44225201  .00024924  00000+0  91166-3 0  9993
2 62476  42.9987 218.3470 0001503 266.0137  94.0543 15.27598502 81687
STARLINK-32733          
1 62477U 24254R   26160.46780129  .00015610  00000+0  57540-3 0  9991
2 62477  42.9983 217.6722 0000996 271.2988  88.7750 15.27589394 81693
STARLINK-32707          
1 62478U 24254S   26160.43198651  .00016603  00000+0  61106-3 0  9998
2 62478  42.9993 218.2680 0001640 260.5262  99.5405 15.27602995 81687
STARLINK-32705          
1 62479U 24254T   26160.44692639  .00015165  00000+0  55937-3 0  9992
2 62479  43.0050 210.5945 0003458 293.2307  66.8181 15.27584146 81613
STARLINK-32743          
1 62480U 24254U   26160.46009431  .00011118  00000+0  41284-3 0  9992
2 62480  42.9977 217.6149 0001010 273.1652  86.9084 15.27588218 81694
STARLINK-32753          
1 62481U 24254V   26160.14858319  .00011607  00000+0  43036-3 0  9995
2 62481  42.9996 219.5843 0000646 355.0631   5.0214 15.27600567 81643
STARLINK-32699          
1 62482U 24254W   26160.47759901  .00013035  00000+0  48222-3 0  9998
2 62482  42.9959 221.2105 0000909 269.4484  90.6264 15.27590863 81507
STARLINK-32713          
1 62487U 25003A   26158.67996319  .00025577  00000+0  93523-3 0  9999
2 62487  43.0022 140.8238 0002614 266.4995  93.5558 15.27596448 80419
STARLINK-32732          
1 62488U 25003B   26160.21584256  .00020574  00000+0  75482-3 0  9992
2 62488  42.9971 131.7013 0000566 274.4578  85.6209 15.27591783 80558
STARLINK-32328          
1 62489U 25003C   26160.26465841  .00019083  00000+0  70039-3 0  9992
2 62489  43.0004 132.0715 0001648 268.5445  91.5218 15.27617872 80677
STARLINK-32332          
1 62490U 25003D   26160.18770761  .00013678  00000+0  50541-3 0  9995
2 62490  42.9973 132.3563 0003856 275.4408  84.6003 15.27591468 80649
STARLINK-32717          
1 62491U 25003E   26158.66457300  .00018506  00000+0  68074-3 0  9992
2 62491  43.0007 140.7059 0001313 241.6231 118.4488 15.27560409 80439
STARLINK-32757          
1 62492U 25003F   26160.19413309  .00019980  00000+0  73320-3 0  9992
2 62492  43.0099 132.4041 0002346 278.6029  81.4557 15.27597922 80540
STARLINK-32731          
1 62493U 25003G   26160.20698665  .00017028  00000+0  62640-3 0  9999
2 62493  42.9999 132.4984 0000092 260.2553  99.8288 15.27605241 80660
STARLINK-32694          
1 62494U 25003H   26160.22354453  .00012686  00000+0  46963-3 0  9991
2 62494  43.0035 131.7628 0000706 266.5728  93.5043 15.27585679 80679
STARLINK-32708          
1 62495U 25003J   26159.20945669  .00021968  00000+0  80397-3 0  9995
2 62495  43.0012 137.9121 0002686 276.2499  83.8046 15.27638471 80396
STARLINK-32718          
1 62496U 25003K   26160.21967944  .00005822  00000+0  22095-3 0  9991
2 62496  42.9982 131.7343 0001192 266.9835  93.0880 15.27576144 80555
STARLINK-32729          
1 62497U 25003L   26160.22739740  .00018353  00000+0  67455-3 0  9996
2 62497  43.0026 131.7884 0000717 272.1614  87.9156 15.27591781 80678
STARLINK-32739          
1 62498U 25003M   26158.67354561  .00022150  00000+0  81128-3 0  9990
2 62498  42.9993 140.7777 0001231 332.1657  27.9129 15.27610047 80386
STARLINK-32714          
1 62499U 25003N   26160.58337963 -.00031902  00000+0 -11539-2 0  9996
2 62499  42.9996 130.3576 0001366 267.4087  12.0359 15.27603988  5549
STARLINK-32685          
1 62500U 25003P   26160.19799011  .00016239  00000+0  59812-3 0  9993
2 62500  43.0007 132.4314 0001929 268.0412  92.0219 15.27590825 80613
STARLINK-32691          
1 62501U 25003Q   26158.67225128  .00020939  00000+0  76785-3 0  9997
2 62501  43.0030 140.7580 0002373 260.4019  99.6565 15.27597071 80426
