OBJECT_NAME,OBJECT_ID,EPOCH,MEAN_MOTION,ECCENTRICITY,INCLINATION,RA_OF_ASC_NODE,ARG_OF_PERICENTER,MEAN_ANOMALY,EPHEMERIS_TYPE,CLASSIFICATION_TYPE,NORAD_CAT_ID,ELEMENT_SET_NO,REV_AT_EPOCH,BSTAR,MEAN_MOTION_DOT,MEAN_MOTION_DDOT
STARLINK-11511 [DTC],2024-254G,2026-06-09T07:54:35.701632,15.71011971,.00021262,43.0001,30.6202,306.9688,53.0985,0,U,62468,999,8381,.22747238E-2,.304574E-2,0
STARLINK-11505 [DTC],2024-254H,2026-06-09T12:13:58.613952,15.70988752,.00024873,43.0002,29.3845,251.5573,108.5024,0,U,62469,999,8383,.11175178E-2,.146419E-2,0
STARLINK-11497 [DTC],2024-254J,2026-06-09T08:02:12.777504,15.70960238,.00057572,43.0001,30.6649,265.6030,94.4180,0,U,62470,999,8381,.11041122E-2,.144543E-2,0
STARLINK-11477 [DTC],2024-254K,2026-06-08T20:50:44.201760,15.70871795,.00019777,42.9989,33.1719,270.1719,89.8922,0,U,62471,999,8373,.10095587E-2,.131336E-2,0
STARLINK-11500 [DTC],2024-254L,2026-06-08T22:14:38.911200,15.70848749,.00021858,43.0001,32.7439,242.6804,117.3842,0,U,62472,999,8322,.12270995E-2,.160138E-2,0
STARLINK-11464 [DTC],2024-254M,2026-06-09T12:44:33.625536,15.71083610,.00036723,43.0001,29.5510,286.7513,73.2951,0,U,62473,999,8389,.12250849E-2,.161518E-2,0
STARLINK-11502 [DTC],2024-254N,2026-06-08T16:31:20.569728,15.70920075,.00022779,43.0003,34.4073,295.3630,64.7002,0,U,62474,999,8371,.8401428E-3,.109152E-2,0
STARLINK-32657,2024-254P,2026-06-07T21:57:14.868288,15.27577761,.00015372,42.9991,230.1237,238.6738,121.3963,0,U,62475,999,8126,.29438096E-3,.7847E-4,0
STARLINK-32734,2024-254Q,2026-06-09T10:36:50.573664,15.27598502,.00015039,42.9987,218.3470,266.0137,94.0543,0,U,62476,999,8168,.91166335E-3,.24924E-3,0
STARLINK-32733,2024-254R,2026-06-09T11:13:38.031456,15.27589394,.0000996,42.9983,217.6722,271.2988,88.7750,0,U,62477,999,8169,.57539771E-3,.1561E-3,0
STARLINK-32707,2024-254S,2026-06-09T10:22:03.634464,15.27602995,.00016403,42.9993,218.2680,260.5262,99.5405,0,U,62478,999,8168,.61105538E-3,.16603E-3,0
STARLINK-32705,2024-254T,2026-06-09T10:43:34.440096,15.27584146,.0003458,43.0050,210.5945,293.2307,66.8181,0,U,62479,999,8161,.55937273E-3,.15165E-3,0
STARLINK-32743,2024-254U,2026-06-09T11:02:32.148384,15.27588218,.00010106,42.9977,217.6149,273.1652,86.9084,0,U,62480,999,8169,.412842E-3,.11118E-3,0
STARLINK-32753,2024-254V,2026-06-09T03:33:57.587616,15.27600567,.00006467,42.9996,219.5843,355.0631,5.0214,0,U,62481,999,8164,.43035991E-3,.11607E-3,0
STARLINK-32699,2024-254W,2026-06-09T11:27:44.554464,15.27590863,.00009097,42.9959,221.2105,269.4484,90.6264,0,U,62482,999,8150,.48221759E-3,.13035E-3,0
STARLINK-32713,2025-003A,2026-06-07T16:19:08.819616,15.27596448,.0002614,43.0022,140.8238,266.4995,93.5558,0,U,62487,999,8041,.93522803E-3,.25577E-3,0
STARLINK-32732,2025-003B,2026-06-09T05:10:48.797184,15.27591783,.0000566,42.9971,131.7013,274.4578,85.6209,0,U,62488,999,8055,.75482E-3,.20574E-3,0
STARLINK-32328,2025-003C,2026-06-09T06:21:06.486624,15.27617872,.0001648,43.0004,132.0715,268.5445,91.5218,0,U,62489,999,8067,.70039E-3,.19083E-3,0
STARLINK-32332,2025-003D,2026-06-09T04:30:17.937504,15.27591468,.00038567,42.9973,132.3563,275.4408,84.6003,0,U,62490,999,8064,.50540988E-3,.13678E-3,0
STARLINK-32717,2025-003E,2026-06-07T15:56:59.107200,15.27560409,.00013132,43.0007,140.7059,241.6231,118.4488,0,U,62491,999,8043,.68074451E-3,.18506E-3,0
STARLINK-32757,2025-003F,2026-06-09T04:39:33.098976,15.27597922,.00023462,43.0099,132.4041,278.6029,81.4557,0,U,62492,999,8054,.73319846E-3,.1998E-3,0
STARLINK-32731,2025-003G,2026-06-09T04:58:03.646560,15.27605241,.00000924,42.9999,132.4984,260.2553,99.8288,0,U,62493,999,8066,.62640425E-3,.17028E-3,0
STARLINK-32694,2025-003H,2026-06-09T05:21:54.247392,15.27585679,.0000706,43.0035,131.7628,266.5728,93.5043,0,U,62494,999,8067,.46963E-3,.12686E-3,0
STARLINK-32708,2025-003J,2026-06-08T05:01:37.058016,15.27638471,.00026869,43.0012,137.9121,276.2499,83.8046,0,U,62495,999,8039,.80396574E-3,.21968E-3,0
STARLINK-32718,2025-003K,2026-06-09T05:16:20.303616,15.27576144,.0001192,42.9982,131.7343,266.9835,93.0880,0,U,62496,999,8055,.22095E-3,.5822E-4,0
STARLINK-32729,2025-003L,2026-06-09T05:27:27.135360,15.27591781,.0000717,43.0026,131.7884,272.1614,87.9156,0,U,62497,999,8067,.67455E-3,.18353E-3,0
STARLINK-32739,2025-003M,2026-06-07T16:09:54.340704,15.27610047,.00012315,42.9993,140.7777,332.1657,27.9129,0,U,62498,999,8038,.81128114E-3,.2215E-3,0
STARLINK-32714,2025-003N,2026-06-09T14:00:04.000032,15.27603988,.00013669,42.9996,130.3576,267.4087,12.0359,0,U,62499,999,554,-.11539158E-2,-.31902E-3,0
STARLINK-32685,2025-003P,2026-06-09T04:45:06.345504,15.27590825,.0001929,43.0007,132.4314,268.0412,92.0219,0,U,62500,999,8061,.59811852E-3,.16239E-3,0
STARLINK-32691,2025-003Q,2026-06-07T16:08:02.510592,15.27597071,.00023733,43.0030,140.7580,260.4019,99.6565,0,U,62501,999,8042,.76785036E-3,.20939E-3,0
